[{"OBJECT_NAME":"ICEYE-X43","OBJECT_ID":"2024-149BZ","EPOCH":"2026-03-09T22:37:06.906720","MEAN_MOTION":14.99337202,"ECCENTRICITY":0.00024583,"INCLINATION":97.6823,"RA_OF_ASC_NODE":147.2527,"ARG_OF_PERICENTER":59.9226,"MEAN_ANOMALY":300.2241,"EPHEMERIS_TYPE":0,"CLASSIFICATION_TYPE":"U","NORAD_CAT_ID":60539,"ELEMENT_SET_NO":999,"REV_AT_EPOCH":8524,"BSTAR":0.00036668005,"MEAN_MOTION_DOT":4.424e-5,"MEAN_MOTION_DDOT":0},{"OBJECT_NAME":"STARLINK-35898","OBJECT_ID":"2025-280F","EPOCH":"2026-03-09T21:57:09.540000","MEAN_MOTION":14.98331395,"ECCENTRICITY":0.00023614,"INCLINATION":70.0019,"RA_OF_ASC_NODE":333.7246,"ARG_OF_PERICENTER":270.0315,"MEAN_ANOMALY":90.0573,"EPHEMERIS_TYPE":0,"CLASSIFICATION_TYPE":"U","NORAD_CAT_ID":66826,"ELEMENT_SET_NO":999,"REV_AT_EPOCH":1611,"BSTAR":0.00051675737,"MEAN_MOTION_DOT":6.078e-5,"MEAN_MOTION_DDOT":0}]
